[
    {
        "Altitude(m)": 556250.4374533524,
        "Argument of Periapsis(deg)": 0.019868973332140504,
        "Eccentricity": 0.0,
        "Inclination(deg)": 53.0,
        "Latitude(deg)": -10.759194655510717,
        "Longitude(deg)": 44.43239296813194,
        "Mean Anomaly(deg)": -13.361521397267124,
        "RAAN(deg)": 154.97043010558406,
        "Satellite Name": "Starlink Shell 1 701",
        "Satellite Number": 701,
        "Semi-Major Axis(m)": 6931778.249405717,
        "Time(s)": 570
    },
    {
        "Altitude(m)": 556130.2923743455,
        "Argument of Periapsis(deg)": 0.02021755181165174,
        "Eccentricity": 0.0,
        "Inclination(deg)": 53.0,
        "Latitude(deg)": -10.260556241227151,
        "Longitude(deg)": 44.780443377553794,
        "Mean Anomaly(deg)": -12.734690193710454,
        "RAAN(deg)": 154.96991133550657,
        "Satellite Name": "Starlink Shell 1 701",
        "Satellite Number": 701,
        "Semi-Major Axis(m)": 6931778.249405717,
        "Time(s)": 580
    },
    {
        "Altitude(m)": 556012.5056658813,
        "Argument of Periapsis(deg)": 0.020566130291162974,
        "Eccentricity": 0.0,
        "Inclination(deg)": 53.0,
        "Latitude(deg)": -9.761424457082118,
        "Longitude(deg)": 45.12728763373477,
        "Mean Anomaly(deg)": -12.107858990153808,
        "RAAN(deg)": 154.9693925654291,
        "Satellite Name": "Starlink Shell 1 701",
        "Satellite Number": 701,
        "Semi-Major Axis(m)": 6931778.249405717,
        "Time(s)": 590
    },
    {
        "Altitude(m)": 555897.1112035898,
        "Argument of Periapsis(deg)": 0.020914708770674213,
        "Eccentricity": 0.0,
        "Inclination(deg)": 53.0,
        "Latitude(deg)": -9.261824510451627,
        "Longitude(deg)": 45.4729881959713,
        "Mean Anomaly(deg)": -11.481027786597062,
        "RAAN(deg)": 154.96887379535164,
        "Satellite Name": "Starlink Shell 1 701",
        "Satellite Number": 701,
        "Semi-Major Axis(m)": 6931778.249405717,
        "Time(s)": 600
    },
    {
        "Altitude(m)": 555784.1416569744,
        "Argument of Periapsis(deg)": 0.021263287250185448,
        "Eccentricity": 0.0,
        "Inclination(deg)": 53.0,
        "Latitude(deg)": -8.761781372218362,
        "Longitude(deg)": 45.817607031879156,
        "Mean Anomaly(deg)": -10.854196583040368,
        "RAAN(deg)": 154.96835502527415,
        "Satellite Name": "Starlink Shell 1 701",
        "Satellite Number": 701,
        "Semi-Major Axis(m)": 6931778.249405717,
        "Time(s)": 610
    },
    {
        "Altitude(m)": 555673.6284758602,
        "Argument of Periapsis(deg)": 0.021611865729696686,
        "Eccentricity": 0.0,
        "Inclination(deg)": 53.0,
        "Latitude(deg)": -8.2613197904433,
        "Longitude(deg)": 46.16120614791949,
        "Mean Anomaly(deg)": -10.22736537948362,
        "RAAN(deg)": 154.9678362551967,
        "Satellite Name": "Starlink Shell 1 701",
        "Satellite Number": 701,
        "Semi-Major Axis(m)": 6931778.249405717,
        "Time(s)": 620
    },
    {
        "Altitude(m)": 555565.601877435,
        "Argument of Periapsis(deg)": 0.02196044420920792,
        "Eccentricity": 0.0,
        "Inclination(deg)": 53.0,
        "Latitude(deg)": -7.76046430383086,
        "Longitude(deg)": 46.5038464388708,
        "Mean Anomaly(deg)": -9.600534175926875,
        "RAAN(deg)": 154.96731748511922,
        "Satellite Name": "Starlink Shell 1 701",
        "Satellite Number": 701,
        "Semi-Major Axis(m)": 6931778.249405717,
        "Time(s)": 630
    },
    {
        "Altitude(m)": 555460.0908339202,
        "Argument of Periapsis(deg)": 0.02230902268871916,
        "Eccentricity": 0.0,
        "Inclination(deg)": 53.0,
        "Latitude(deg)": -7.259239254991725,
        "Longitude(deg)": 46.84558905867316,
        "Mean Anomaly(deg)": -8.973702972370205,
        "RAAN(deg)": 154.96679871504173,
        "Satellite Name": "Starlink Shell 1 701",
        "Satellite Number": 701,
        "Semi-Major Axis(m)": 6931778.249405717,
        "Time(s)": 640
    },
    {
        "Altitude(m)": 555357.1230608376,
        "Argument of Periapsis(deg)": 0.022657601168230398,
        "Eccentricity": 0.0,
        "Inclination(deg)": 53.0,
        "Latitude(deg)": -6.757668803523281,
        "Longitude(deg)": 47.18649426973299,
        "Mean Anomaly(deg)": -8.346871768813457,
        "RAAN(deg)": 154.96627994496427,
        "Satellite Name": "Starlink Shell 1 701",
        "Satellite Number": 701,
        "Semi-Major Axis(m)": 6931778.249405717,
        "Time(s)": 650
    },
    {
        "Altitude(m)": 555256.7250059363,
        "Argument of Periapsis(deg)": 0.023006179647741636,
        "Eccentricity": 0.0,
        "Inclination(deg)": 53.0,
        "Latitude(deg)": -6.255776938914088,
        "Longitude(deg)": 47.52662197311457,
        "Mean Anomaly(deg)": -7.720040565256787,
        "RAAN(deg)": 154.9657611748868,
        "Satellite Name": "Starlink Shell 1 701",
        "Satellite Number": 701,
        "Semi-Major Axis(m)": 6931778.249405717,
        "Time(s)": 660
    },
    {
        "Altitude(m)": 555158.921838726,
        "Argument of Periapsis(deg)": 0.023354758127252868,
        "Eccentricity": 0.0,
        "Inclination(deg)": 53.0,
        "Latitude(deg)": -5.753587493284969,
        "Longitude(deg)": 47.86603223865184,
        "Mean Anomaly(deg)": -7.093209361700015,
        "RAAN(deg)": 154.96524240480932,
        "Satellite Name": "Starlink Shell 1 701",
        "Satellite Number": 701,
        "Semi-Major Axis(m)": 6931778.249405717,
        "Time(s)": 670
    },
    {
        "Altitude(m)": 555063.7374406471,
        "Argument of Periapsis(deg)": 0.023703336606764106,
        "Eccentricity": 0.0,
        "Inclination(deg)": 53.0,
        "Latitude(deg)": -5.251124153982795,
        "Longitude(deg)": 48.20478432210765,
        "Mean Anomaly(deg)": -6.466378158143268,
        "RAAN(deg)": 154.96472363473185,
        "Satellite Name": "Starlink Shell 1 701",
        "Satellite Number": 701,
        "Semi-Major Axis(m)": 6931778.249405717,
        "Time(s)": 680
    },
    {
        "Altitude(m)": 554971.1943959027,
        "Argument of Periapsis(deg)": 0.024051915086275345,
        "Eccentricity": 0.0,
        "Inclination(deg)": 53.0,
        "Latitude(deg)": -4.748410476032127,
        "Longitude(deg)": 48.542937195132325,
        "Mean Anomaly(deg)": -5.839546954586624,
        "RAAN(deg)": 154.9642048646544,
        "Satellite Name": "Starlink Shell 1 701",
        "Satellite Number": 701,
        "Semi-Major Axis(m)": 6931778.249405717,
        "Time(s)": 690
    },
    {
        "Altitude(m)": 554881.3139829221,
        "Argument of Periapsis(deg)": 0.024400493565786583,
        "Eccentricity": 0.0,
        "Inclination(deg)": 53.0,
        "Latitude(deg)": -4.24546989445976,
        "Longitude(deg)": 48.88055007515165,
        "Mean Anomaly(deg)": -5.212715751029852,
        "RAAN(deg)": 154.9636860945769,
        "Satellite Name": "Starlink Shell 1 701",
        "Satellite Number": 701,
        "Semi-Major Axis(m)": 6931778.249405717,
        "Time(s)": 700
    },
    {
        "Altitude(m)": 554794.1161664911,
        "Argument of Periapsis(deg)": 0.024749072045297815,
        "Eccentricity": 0.0,
        "Inclination(deg)": 53.0,
        "Latitude(deg)": -3.7423257365062663,
        "Longitude(deg)": 49.21768144231521,
        "Mean Anomaly(deg)": -4.5858845474731815,
        "RAAN(deg)": 154.96316732449944,
        "Satellite Name": "Starlink Shell 1 701",
        "Satellite Number": 701,
        "Semi-Major Axis(m)": 6931778.249405717,
        "Time(s)": 710
    },
    {
        "Altitude(m)": 554709.6195905175,
        "Argument of Periapsis(deg)": 0.025097650524809053,
        "Eccentricity": 0.0,
        "Inclination(deg)": 53.0,
        "Latitude(deg)": -3.239001233729775,
        "Longitude(deg)": 49.5543895692586,
        "Mean Anomaly(deg)": -3.959053343916435,
        "RAAN(deg)": 154.96264855442197,
        "Satellite Name": "Starlink Shell 1 701",
        "Satellite Number": 701,
        "Semi-Major Axis(m)": 6931778.249405717,
        "Time(s)": 720
    },
    {
        "Altitude(m)": 554627.841571491,
        "Argument of Periapsis(deg)": 0.02544622900432029,
        "Eccentricity": 0.0,
        "Inclination(deg)": 53.0,
        "Latitude(deg)": -2.7355195340183167,
        "Longitude(deg)": 49.89073305080954,
        "Mean Anomaly(deg)": -3.332222140359765,
        "RAAN(deg)": 154.96212978434448,
        "Satellite Name": "Starlink Shell 1 701",
        "Satellite Number": 701,
        "Semi-Major Axis(m)": 6931778.249405717,
        "Time(s)": 730
    },
    {
        "Altitude(m)": 554548.7980925627,
        "Argument of Periapsis(deg)": 0.02579480748383153,
        "Eccentricity": 0.0,
        "Inclination(deg)": 53.0,
        "Latitude(deg)": -2.2319037135215534,
        "Longitude(deg)": 50.22676982077361,
        "Mean Anomaly(deg)": -2.70539093680312,
        "RAAN(deg)": 154.96161101426702,
        "Satellite Name": "Starlink Shell 1 701",
        "Satellite Number": 701,
        "Semi-Major Axis(m)": 6931778.249405717,
        "Time(s)": 740
    },
    {
        "Altitude(m)": 554472.5037983399,
        "Argument of Periapsis(deg)": 0.026143385963342765,
        "Eccentricity": 0.0,
        "Inclination(deg)": 53.0,
        "Latitude(deg)": -1.7281767885108477,
        "Longitude(deg)": 50.56255768155026,
        "Mean Anomaly(deg)": -2.078559733246272,
        "RAAN(deg)": 154.96109224418956,
        "Satellite Name": "Starlink Shell 1 701",
        "Satellite Number": 701,
        "Semi-Major Axis(m)": 6931778.249405717,
        "Time(s)": 750
    }
]